[{"OBJECT_NAME":"ION SCV-011","OBJECT_ID":"2023-084AB","EPOCH":"2026-03-09T22:35:16.566144","MEAN_MOTION":15.27752464,"ECCENTRICITY":0.00079323,"INCLINATION":98.1356,"RA_OF_ASC_NODE":247.1056,"ARG_OF_PERICENTER":30.3898,"MEAN_ANOMALY":329.7798,"EPHEMERIS_TYPE":0,"CLASSIFICATION_TYPE":"U","NORAD_CAT_ID":56957,"ELEMENT_SET_NO":999,"REV_AT_EPOCH":15065,"BSTAR":0.0002590454,"MEAN_MOTION_DOT":6.943e-5,"MEAN_MOTION_DDOT":0},{"OBJECT_NAME":"STARLINK-33896","OBJECT_ID":"2025-093AB","EPOCH":"2026-03-09T21:45:03.921696","MEAN_MOTION":15.27587038,"ECCENTRICITY":0.00010507,"INCLINATION":43.0003,"RA_OF_ASC_NODE":76.7988,"ARG_OF_PERICENTER":259.929,"MEAN_ANOMALY":100.1443,"EPHEMERIS_TYPE":0,"CLASSIFICATION_TYPE":"U","NORAD_CAT_ID":63861,"ELEMENT_SET_NO":999,"REV_AT_EPOCH":4778,"BSTAR":0.00069706536,"MEAN_MOTION_DOT":0.00018973,"MEAN_MOTION_DDOT":0}]
